EKRAN 2 DEB             
1 59987U 77092N   26062.97961392 -.00000370  00000+0  00000+0 0  9994
2 59987   4.3968 275.3505 0011746 223.0522 129.2601  1.00192500 62054
EKRAN 2 DEB             
1 59988U 77092P   26062.66628782  .00000048  00000+0  00000+0 0  9995
2 59988   4.2067 272.9437 0051101  65.9126 104.6942  1.00881621 73981
OPS 9442 (DSCS 2-12) DEB
1 59989U 78113E   26061.89912772 -.00000241  00000+0  00000+0 0  9996
2 59989   8.4063 303.1654 0171989  82.7523 279.1550  0.98457697 44177
OPS 9442 (DSCS 2-12) DEB
1 59990U 78113F   26062.41005835 -.00000098  00000+0  00000+0 0  9990
2 59990   8.6338 303.1550 0151246 121.0540  94.4470  0.98217636 44054
OPS 9442 (DSCS 2-12) DEB
1 59991U 78113G   26046.83861709 -.00000006  00000+0  00000+0 0  9998
2 59991   8.3852 304.1665 0150155 138.9660  87.8629  0.98449700 42991
OPS 9442 (DSCS 2-12) DEB
1 59992U 78113H   26062.14434020 -.00000192  00000+0  00000+0 0  9999
2 59992   8.5824 303.6679 0226358  92.1453 103.6381  0.98331835 57843
VELA 11/12 INTERSTAGE   
1 60002U 70027D   26061.81683939 -.00000932  00000+0  00000+0 0  9999
2 60002  18.4546  34.8971 7958559 284.7422   0.0479  0.45892478 20499
ASTRA 1P (SES-24)       
1 60086U 24115A   26063.37128004  .00000108  00000+0  00000+0 0  9992
2 60086   0.0597 335.5167 0005274 347.3044 352.1506  1.00273834  6147
FALCON 9 R/B            
1 60087U 24115B   26062.75009521  .00002330  00000+0  64444-2 0  9990
2 60087  27.5403 298.2273 7971967  24.8920 358.3885  1.44096451  8932
GOES 19                 
1 60133U 24119A   26063.34003264 -.00000260  00000+0  00000+0 0  9996
2 60133   0.0165 326.7117 0000996  53.9137 188.6733  1.00271970  5914
ZHONGXING-3A            
1 60179U 24122A   26063.68134716  .00000000  00000+0  00000+0 0  9995
2 60179   0.0176 130.5499 0002212 300.3524  78.3972  1.00267690  6265
TURKSAT 6A              
1 60233U 24127A   26063.24253072  .00000134  00000+0  00000+0 0  9998
2 60233   0.0613 238.1454 0002846  55.8002 357.3530  1.00273523  5962
FALCON 9 R/B            
1 60234U 24127B   26061.71450289 -.00000029  00000+0  68313-2 0  9996
2 60234  26.9170  24.4956 8347391 327.0647   1.4515  1.03911026  5987
YZ-1S R/B               
1 60326U 24048E   26061.81504575 -.00001475  00000+0  96516-3 0  9992
2 60326  17.3875 314.9858 8970094 227.8654 358.7073  0.47339127  3225
HULIANWAN GAOGUI-02 (H*)
1 60327U 24135A   26063.85457940 -.00000184  00000+0  00000+0 0  9994
2 60327   0.0406  12.5178 0007670 328.9435 281.9715  1.00266928  6450
ASBM-1                  
1 60422U 24143A   26058.80893892 -.00000047  00000+0  00000+0 0  9996
2 60422  62.7757  49.7512 5566239 269.0979  30.2165  1.50422868  9974
ASBM-2                  
1 60423U 24143B   26059.14209108 -.00000046  00000+0  00000+0 0  9995
2 60423  62.7439  49.8094 5562535 269.1530  30.2210  1.50422744  9960
