[{"OBJECT_NAME":"EKRAN 2 DEB","OBJECT_ID":"1977-092N","EPOCH":"2026-03-03T23:30:38.642688","MEAN_MOTION":1.001925,"ECCENTRICITY":0.00117462,"INCLINATION":4.3968,"RA_OF_ASC_NODE":275.3505,"ARG_OF_PERICENTER":223.0522,"MEAN_ANOMALY":129.2601,"EPHEMERIS_TYPE":0,"CLASSIFICATION_TYPE":"U","NORAD_CAT_ID":59987,"ELEMENT_SET_NO":999,"REV_AT_EPOCH":6205,"BSTAR":0,"MEAN_MOTION_DOT":-3.7e-6,"MEAN_MOTION_DDOT":0},{"OBJECT_NAME":"EKRAN 2 DEB","OBJECT_ID":"1977-092P","EPOCH":"2026-03-03T15:59:27.267648","MEAN_MOTION":1.00881621,"ECCENTRICITY":0.00511012,"INCLINATION":4.2067,"RA_OF_ASC_NODE":272.9437,"ARG_OF_PERICENTER":65.9126,"MEAN_ANOMALY":104.6942,"EPHEMERIS_TYPE":0,"CLASSIFICATION_TYPE":"U","NORAD_CAT_ID":59988,"ELEMENT_SET_NO":999,"REV_AT_EPOCH":7398,"BSTAR":0,"MEAN_MOTION_DOT":4.8e-7,"MEAN_MOTION_DDOT":0},{"OBJECT_NAME":"OPS 9442 (DSCS 2-12) DEB","OBJECT_ID":"1978-113E","EPOCH":"2026-03-02T21:34:44.635008","MEAN_MOTION":0.98457697,"ECCENTRICITY":0.0171989,"INCLINATION":8.4063,"RA_OF_ASC_NODE":303.1654,"ARG_OF_PERICENTER":82.7523,"MEAN_ANOMALY":279.155,"EPHEMERIS_TYPE":0,"CLASSIFICATION_TYPE":"U","NORAD_CAT_ID":59989,"ELEMENT_SET_NO":999,"REV_AT_EPOCH":4417,"BSTAR":0,"MEAN_MOTION_DOT":-2.41e-6,"MEAN_MOTION_DDOT":0},{"OBJECT_NAME":"OPS 9442 (DSCS 2-12) DEB","OBJECT_ID":"1978-113F","EPOCH":"2026-03-03T09:50:29.041440","MEAN_MOTION":0.98217636,"ECCENTRICITY":0.01512469,"INCLINATION":8.6338,"RA_OF_ASC_NODE":303.155,"ARG_OF_PERICENTER":121.054,"MEAN_ANOMALY":94.447,"EPHEMERIS_TYPE":0,"CLASSIFICATION_TYPE":"U","NORAD_CAT_ID":59990,"ELEMENT_SET_NO":999,"REV_AT_EPOCH":4405,"BSTAR":0,"MEAN_MOTION_DOT":-9.8e-7,"MEAN_MOTION_DDOT":0},{"OBJECT_NAME":"OPS 9442 (DSCS 2-12) DEB","OBJECT_ID":"1978-113G","EPOCH":"2026-02-15T20:07:36.516576","MEAN_MOTION":0.984497,"ECCENTRICITY":0.0150155,"INCLINATION":8.3852,"RA_OF_ASC_NODE":304.1665,"ARG_OF_PERICENTER":138.966,"MEAN_ANOMALY":87.8629,"EPHEMERIS_TYPE":0,"CLASSIFICATION_TYPE":"U","NORAD_CAT_ID":59991,"ELEMENT_SET_NO":999,"REV_AT_EPOCH":4299,"BSTAR":0,"MEAN_MOTION_DOT":-6.0e-8,"MEAN_MOTION_DDOT":0},{"OBJECT_NAME":"OPS 9442 (DSCS 2-12) DEB","OBJECT_ID":"1978-113H","EPOCH":"2026-03-03T03:27:50.993280","MEAN_MOTION":0.98331835,"ECCENTRICITY":0.0226358,"INCLINATION":8.5824,"RA_OF_ASC_NODE":303.6679,"ARG_OF_PERICENTER":92.1453,"MEAN_ANOMALY":103.6381,"EPHEMERIS_TYPE":0,"CLASSIFICATION_TYPE":"U","NORAD_CAT_ID":59992,"ELEMENT_SET_NO":999,"REV_AT_EPOCH":5784,"BSTAR":0,"MEAN_MOTION_DOT":-1.92e-6,"MEAN_MOTION_DDOT":0},{"OBJECT_NAME":"VELA 11/12 INTERSTAGE","OBJECT_ID":"1970-027D","EPOCH":"2026-03-02T19:36:14.923296","MEAN_MOTION":0.45892478,"ECCENTRICITY":0.7958559,"INCLINATION":18.4546,"RA_OF_ASC_NODE":34.8971,"ARG_OF_PERICENTER":284.7422,"MEAN_ANOMALY":0.0479,"EPHEMERIS_TYPE":0,"CLASSIFICATION_TYPE":"U","NORAD_CAT_ID":60002,"ELEMENT_SET_NO":999,"REV_AT_EPOCH":2049,"BSTAR":0,"MEAN_MOTION_DOT":-9.32e-6,"MEAN_MOTION_DDOT":0},{"OBJECT_NAME":"ASTRA 1P (SES-24)","OBJECT_ID":"2024-115A","EPOCH":"2026-03-04T08:54:38.595456","MEAN_MOTION":1.00273834,"ECCENTRICITY":0.00052742,"INCLINATION":0.0597,"RA_OF_ASC_NODE":335.5167,"ARG_OF_PERICENTER":347.3044,"MEAN_ANOMALY":352.1506,"EPHEMERIS_TYPE":0,"CLASSIFICATION_TYPE":"U","NORAD_CAT_ID":60086,"ELEMENT_SET_NO":999,"REV_AT_EPOCH":614,"BSTAR":0,"MEAN_MOTION_DOT":1.08e-6,"MEAN_MOTION_DDOT":0},{"OBJECT_NAME":"FALCON 9 R/B","OBJECT_ID":"2024-115B","EPOCH":"2026-03-03T18:00:08.226144","MEAN_MOTION":1.44096451,"ECCENTRICITY":0.7971967,"INCLINATION":27.5403,"RA_OF_ASC_NODE":298.2273,"ARG_OF_PERICENTER":24.892,"MEAN_ANOMALY":358.3885,"EPHEMERIS_TYPE":0,"CLASSIFICATION_TYPE":"U","NORAD_CAT_ID":60087,"ELEMENT_SET_NO":999,"REV_AT_EPOCH":893,"BSTAR":0.0064444,"MEAN_MOTION_DOT":2.33e-5,"MEAN_MOTION_DDOT":0},{"OBJECT_NAME":"GOES 19","OBJECT_ID":"2024-119A","EPOCH":"2026-03-04T08:09:38.820096","MEAN_MOTION":1.0027197,"ECCENTRICITY":9.96e-5,"INCLINATION":0.0165,"RA_OF_ASC_NODE":326.7117,"ARG_OF_PERICENTER":53.9137,"MEAN_ANOMALY":188.6733,"EPHEMERIS_TYPE":0,"CLASSIFICATION_TYPE":"U","NORAD_CAT_ID":60133,"ELEMENT_SET_NO":999,"REV_AT_EPOCH":591,"BSTAR":0,"MEAN_MOTION_DOT":-2.6e-6,"MEAN_MOTION_DDOT":0},{"OBJECT_NAME":"ZHONGXING-3A","OBJECT_ID":"2024-122A","EPOCH":"2026-03-04T16:21:08.394624","MEAN_MOTION":1.0026769,"ECCENTRICITY":0.0002212,"INCLINATION":0.0176,"RA_OF_ASC_NODE":130.5499,"ARG_OF_PERICENTER":300.3524,"MEAN_ANOMALY":78.3972,"EPHEMERIS_TYPE":0,"CLASSIFICATION_TYPE":"U","NORAD_CAT_ID":60179,"ELEMENT_SET_NO":999,"REV_AT_EPOCH":626,"BSTAR":0,"MEAN_MOTION_DOT":0,"MEAN_MOTION_DDOT":0},{"OBJECT_NAME":"TURKSAT 6A","OBJECT_ID":"2024-127A","EPOCH":"2026-03-04T05:49:14.654208","MEAN_MOTION":1.00273523,"ECCENTRICITY":0.00028465,"INCLINATION":0.0613,"RA_OF_ASC_NODE":238.1454,"ARG_OF_PERICENTER":55.8002,"MEAN_ANOMALY":357.353,"EPHEMERIS_TYPE":0,"CLASSIFICATION_TYPE":"U","NORAD_CAT_ID":60233,"ELEMENT_SET_NO":999,"REV_AT_EPOCH":596,"BSTAR":0,"MEAN_MOTION_DOT":1.34e-6,"MEAN_MOTION_DDOT":0},{"OBJECT_NAME":"FALCON 9 R/B","OBJECT_ID":"2024-127B","EPOCH":"2026-03-02T17:08:53.049696","MEAN_MOTION":1.03911026,"ECCENTRICITY":0.8347391,"INCLINATION":26.917,"RA_OF_ASC_NODE":24.4956,"ARG_OF_PERICENTER":327.0647,"MEAN_ANOMALY":1.4515,"EPHEMERIS_TYPE":0,"CLASSIFICATION_TYPE":"U","NORAD_CAT_ID":60234,"ELEMENT_SET_NO":999,"REV_AT_EPOCH":598,"BSTAR":0.0068313,"MEAN_MOTION_DOT":-2.9e-7,"MEAN_MOTION_DDOT":0},{"OBJECT_NAME":"YZ-1S R/B","OBJECT_ID":"2024-048E","EPOCH":"2026-03-02T19:33:39.952800","MEAN_MOTION":0.47339127,"ECCENTRICITY":0.89700946,"INCLINATION":17.3875,"RA_OF_ASC_NODE":314.9858,"ARG_OF_PERICENTER":227.8654,"MEAN_ANOMALY":358.7073,"EPHEMERIS_TYPE":0,"CLASSIFICATION_TYPE":"U","NORAD_CAT_ID":60326,"ELEMENT_SET_NO":999,"REV_AT_EPOCH":322,"BSTAR":0.00096515958,"MEAN_MOTION_DOT":-1.475e-5,"MEAN_MOTION_DDOT":0},{"OBJECT_NAME":"HULIANWAN GAOGUI-02 (HG-02)","OBJECT_ID":"2024-135A","EPOCH":"2026-03-04T20:30:35.660160","MEAN_MOTION":1.00266928,"ECCENTRICITY":0.000767,"INCLINATION":0.0406,"RA_OF_ASC_NODE":12.5178,"ARG_OF_PERICENTER":328.9435,"MEAN_ANOMALY":281.9715,"EPHEMERIS_TYPE":0,"CLASSIFICATION_TYPE":"U","NORAD_CAT_ID":60327,"ELEMENT_SET_NO":999,"REV_AT_EPOCH":645,"BSTAR":0,"MEAN_MOTION_DOT":-1.84e-6,"MEAN_MOTION_DDOT":0},{"OBJECT_NAME":"ASBM-1","OBJECT_ID":"2024-143A","EPOCH":"2026-02-27T19:24:52.322688","MEAN_MOTION":1.50422868,"ECCENTRICITY":0.55662392,"INCLINATION":62.7757,"RA_OF_ASC_NODE":49.7512,"ARG_OF_PERICENTER":269.0979,"MEAN_ANOMALY":30.2165,"EPHEMERIS_TYPE":0,"CLASSIFICATION_TYPE":"U","NORAD_CAT_ID":60422,"ELEMENT_SET_NO":999,"REV_AT_EPOCH":997,"BSTAR":0,"MEAN_MOTION_DOT":-4.7e-7,"MEAN_MOTION_DDOT":0},{"OBJECT_NAME":"ASBM-2","OBJECT_ID":"2024-143B","EPOCH":"2026-02-28T03:24:36.669312","MEAN_MOTION":1.50422744,"ECCENTRICITY":0.5562535,"INCLINATION":62.7439,"RA_OF_ASC_NODE":49.8094,"ARG_OF_PERICENTER":269.153,"MEAN_ANOMALY":30.221,"EPHEMERIS_TYPE":0,"CLASSIFICATION_TYPE":"U","NORAD_CAT_ID":60423,"ELEMENT_SET_NO":999,"REV_AT_EPOCH":996,"BSTAR":0,"MEAN_MOTION_DOT":-4.6e-7,"MEAN_MOTION_DDOT":0}]
